JILIN-1 07              
1 43159U 18008E   25008.60698409  .00009467  00000+0  38919-3 0  9994
2 43159  97.2252  39.8826 0011789 123.3608 236.8760 15.24309445384808
JILIN-1 08              
1 43160U 18008F   25008.59050841  .00008740  00000+0  36380-3 0  9999
2 43160  97.2263  39.5297 0008638 133.1727 227.0234 15.23944207384786
LEMUR-2-URAMCHANSOL     
1 43183U 18014D   25008.71917997  .00063645  00000+0  16148-2 0  9993
2 43183  97.5631 281.8828 0008067  12.7770 347.3678 15.39422362380178
LEMUR-2-KADI            
1 43184U 18014E   25008.79071954  .00022686  00000+0  89700-3 0  9991
2 43184  97.5394 277.2298 0008565 353.9136   6.1996 15.25454883379971
S-NET D                 
1 43186U 18014G   25008.60729090  .00008200  00000+0  52062-3 0  9991
2 43186  97.5757 273.2257 0010818  34.1372 326.0550 15.09080697379432
S-NET B                 
1 43187U 18014H   25008.61098771  .00008318  00000+0  52822-3 0  9992
2 43187  97.5764 273.1927 0011394  29.0653 331.1208 15.09065285379432
S-NET A                 
1 43188U 18014J   25008.47552544  .00008332  00000+0  52886-3 0  9996
2 43188  97.5768 273.1908 0011333  30.6588 329.5301 15.09082601379418
S-NET C                 
1 43189U 18014K   25008.61307667  .00008325  00000+0  52854-3 0  9994
2 43189  97.5784 273.3141 0012724  22.1668 338.0108 15.09062795377980
PAZ                     
1 43215U 18020A   25008.59803015  .00004126  00000+0  19952-3 0  9993
2 43215  97.4444  18.5118 0001684  92.8793 267.2634 15.19155020381360
GOES 17                 
1 43226U 18022A   25008.62932344 -.00000079  00000+0  00000+0 0  9993
2 43226   0.0304 164.0983 0003514 104.8810 321.3174  1.00269904 25179
LKW-4                   
1 43236U 18025A   25008.34380050  .00019879  00000+0  65167-3 0  9993
2 43236  97.5772 149.3238 0004922  41.6146 318.5469 15.31659982379000
ZHUHAI-1 OVS-02         
1 43440U 18040B   25008.86025519  .00014207  00000+0  54107-3 0  9992
2 43440  97.0964  52.1956 0000592  22.3142 337.8123 15.26824733372921
ZHUHAI-1 OHS-02         
1 43441U 18040C   25008.82159920  .00013646  00000+0  53561-3 0  9992
2 43441  97.1040  56.1574 0011318 312.8772  47.1516 15.25773491372922
GAOFEN-6                
1 43484U 18048A   25008.83968565  .00001656  00000+0  24391-3 0  9998
2 43484  97.8434  83.6314 0013789  69.2779 290.9908 14.76619338356013
LUOJIA-1 01             
1 43485U 18048B   25008.82140869  .00003828  00000+0  46745-3 0  9997
2 43485  97.8585  90.1862 0010552  46.9953 313.2144 14.83843452356333
PAKTES 1A               
1 43529U 18056A   25008.82397315  .00003862  00000+0  35517-3 0  9998
2 43529  98.0544 141.8117 0023438  52.2863 308.0476 14.95195238353459
PRSS 1                  
1 43530U 18056B   25008.81538858  .00001759  00000+0  23669-3 0  9996
2 43530  97.8448  84.7720 0001091  87.9482 272.1855 14.80456099350806
HAIYANG-1C              
1 43609U 18068A   25008.51943780  .00000345  00000+0  13899-3 0  9991
2 43609  98.5829  81.6556 0009736 206.7588 153.3095 14.34132743331888
SSTL S1-4               
1 43618U 18071A   25008.86488970  .00001859  00000+0  17033-3 0  9993
2 43618  97.5766 254.8521 0006168 109.3781 250.8108 14.96082212344540
HAIYANG-2B              
1 43655U 18081A   25008.85276351  .00000013  00000+0  55857-4 0  9990
2 43655  99.3360  20.3660 0000746 183.6514 176.4632 13.79306977312644
CZ-4B R/B               
1 43656U 18081B   25008.55397031  .00000475  00000+0  15968-3 0  9997
2 43656  99.4178 238.7228 0205449 337.1093  22.1028 14.31503980324239
CFOSAT                  
1 43662U 18083A   25008.56166069  .00006436  00000+0  33293-3 0  9996
2 43662  97.3695  23.4028 0001410 338.2727  21.8446 15.16576192342938
2018-083C               
1 43664U 18083C   25008.56746996  .00171479  00000+0  10409-2 0  9994
2 43664  97.3068  46.3597 0001982 190.8393 169.2831 15.77025573344839
TEN-KOH                 
1 43677U 18084G   25008.42364294  .00004549  00000+0  38000-3 0  9992
2 43677  98.0833 174.7434 0014792  55.8504 304.4118 14.98985426337437
DIWATA-2B               
1 43678U 18084H   25008.79867257  .00002775  00000+0  24610-3 0  9991
2 43678  98.0874 179.3713 0009662  73.2423 286.9857 14.97049506337666
STARS-AO                
1 43679U 18084J   25008.43532675  .00011680  00000+0  76824-3 0  9995
2 43679  98.0676 187.3843 0003041 128.8844 231.2654 15.07741650338131
AUTCUBE 2               
1 43681U 18084K   25008.46879400  .00007444  00000+0  54531-3 0  9995
2 43681  98.0745 183.4174 0010908  21.1271 339.0402 15.03818422337881
METOP-C                 
1 43689U 18087A   25008.81678408  .00000255  00000+0  13643-3 0  9992
2 43689  98.6977  71.4008 0001111 177.8369 182.2813 14.21477115320332
ES'HAIL 2               
1 43700U 18090A   25008.11299317  .00000157  00000+0  00000+0 0  9991
2 43700   0.0155 340.0684 0002709 348.0663 206.2355  1.00270421 22419
TIANPING 1B             
1 43714U 18094E   25008.55768835  .00031667  00000+0  47266-3 0  9993
2 43714  97.3488  36.2651 0004926 236.0886 123.9900 15.54989690342477
MOHAMMED VI-B           
1 43717U 18095A   25008.85428426  .00001703  45620-9  24163-3 0  9995
2 43717  97.9555  83.7030 0001333  84.5717 275.5645 14.77053399330038
HYSIS                   
1 43719U 18096A   25008.83140349  .00001972  61630-9  26927-3 0  9998
2 43719  97.8413  73.8372 0002005  47.6895 312.4486 14.78691380330005
COSMOS 2530             
1 43751U 18097A   25008.85134161  .00000043  00000+0  23960-3 0  9998
2 43751  82.5136 187.7302 0020144  99.5070 260.8288 12.42895763277249
COSMOS 2531             
1 43752U 18097B   25008.87718339  .00000060  00000+0  35727-3 0  9999
2 43752  82.5181 188.5810 0017312 116.5419 243.7438 12.42903928277254
COSMOS 2532             
1 43753U 18097C   25008.58239064  .00000047  00000+0  26958-3 0  9992
2 43753  82.5126 187.7877 0018637 119.7600 240.5336 12.42903470277104
MINXSS-2                
1 43758U 18099A   25008.15701344  .00020549  00000+0  99629-3 0  9991
2 43758  97.5268  74.3124 0013224 335.4782  24.5822 15.18469086333786
SIRION PATHFINDER-2     
1 43759U 18099B   25008.69665469  .00007666  00000+0  51241-3 0  9991
2 43759  97.5029  65.3451 0009281 312.3563  47.6878 15.07213817333418
AISTECHSAT 2            
1 43768U 18099L   25008.55190823  .00007965  00000+0  52785-3 0  9999
2 43768  97.5089  63.3674 0004571 320.8531  39.2366 15.07544551333012
FOX-1CLIFF (AO-95)      
1 43770U 18099N   25008.15287217  .00013850  00000+0  79366-3 0  9996
2 43770  97.5181  68.2104 0012534  26.9558 333.2321 15.12647519333473
2018-099Q               
1 43772U 18099Q   25008.42151160  .00025081  00000+0  11225-2 0  9993
2 43772  97.4971  73.2462 0003330 276.9421  83.1435 15.21264605333797
RANGE-A                 
1 43773U 18099R   25008.37747647  .00007113  00000+0  48361-3 0  9997
2 43773  97.4737  61.2417 0011935   1.4724 358.6537 15.06584389333286
HIBER-2                 
1 43774U 18099S   25008.75395961  .00025851  00000+0  10318-2 0  9997
2 43774  97.5146  76.0219 0006459 321.4905  38.5871 15.25126437333942
MOVE-II                 
1 43780U 18099Y   25008.40512694  .00063409  00000+0  17561-2 0  9998
2 43780  97.4918  77.8076 0004339 344.8877  15.2237 15.36738683334197
VESTA-1                 
1 43781U 18099Z   25008.57941296  .00030813  00000+0  12660-2 0  9999
2 43781  97.4912  70.0379 0004280 355.6044   4.5155 15.24124732333802
SNUSAT-2                
1 43782U 18099AA  25008.60842100  .00009769  00000+0  59128-3 0  9995
2 43782  97.4865  66.5625 0012076 325.0254  35.0181 15.10762237333520
SNUGLITE                
1 43784U 18099AC  25008.61057109  .00011794  00000+0  67237-3 0  9996
2 43784  97.4677  65.9016 0003273 347.2905  12.8243 15.12932144333629
ITASAT                  
1 43786U 18099AE  25008.60393240  .00008249  00000+0  51549-3 0  9996
2 43786  97.4829  66.4572 0015861  16.2637 343.9098 15.09601625333500
KAZSCISAT-1             
1 43787U 18099AF  25008.63027120  .00048299  00000+0  14431-2 0  9998
2 43787  97.4782  74.2658 0004061 317.0114  43.0811 15.34429992334193
EAGLET-I                
1 43790U 18099AJ  25008.59899506  .00005372  00000+0  36452-3 0  9995
2 43790  97.5021  66.8005 0012538 357.9761   2.1413 15.06765919333167
ESEO                    
1 43792U 18099AL  25008.72216718  .00002426  00000+0  19161-3 0  9995
2 43792  97.4764  62.0992 0007195 319.1431  40.9254 15.01574598333026
CSIM-FD                 
1 43793U 18099AM  25008.71358872  .00048846  00000+0  13665-2 0  9991
2 43793  97.5083  80.0213 0007883 312.3453  47.7122 15.36474193334085
THEA                    
1 43796U 18099AQ  25008.55283107  .00013709  00000+0  71833-3 0  9996
2 43796  97.5189  73.5605 0010553 337.2831  22.7933 15.15862971332725
ASTROCAST 0.1           
1 43798U 18099AS  25008.45294236  .00019839  00000+0  88070-3 0  9993
2 43798  97.5089  75.7577 0007715 293.6800  66.3625 15.21571878333986
JY1SAT (JO-97)          
1 43803U 18099AX  25008.13800769  .00015905  00000+0  84733-3 0  9991
2 43803  97.4923  68.9733 0007559 324.9492  35.1242 15.15263191333649
SUOMI-100               
1 43804U 18099AY  25008.60799890  .00011458  00000+0  63964-3 0  9998
2 43804  97.4991  69.0707 0012709 320.8641  39.1671 15.13631821333672
AL-FARABI 2             
1 43805U 18099AZ  25008.71945211  .00022553  00000+0  96049-3 0  9999
2 43805  97.4817  72.5081 0007387 302.2344  57.8176 15.22960970333985
CENTAURI-1              
1 43809U 18099BD  25008.38497730  .00008670  00000+0  55915-3 0  9995
2 43809  97.5016  66.6631 0016457 344.8919  15.1816 15.08423670333167
GLOBAL-2                
1 43812U 18099BG  25008.56211469  .00005670  00000+0  41572-3 0  9993
2 43812  97.4291  61.1910 0006948 143.9884 216.1812 15.03871696332920
BRIO                    
1 43813U 18099BH  25008.48436842  .00068628  00000+0  19096-2 0  9996
2 43813  97.5414  84.4221 0004600 298.2658  61.8121 15.36566690333951
